OBJECT_NAME,OBJECT_ID,EPOCH,MEAN_MOTION,ECCENTRICITY,INCLINATION,RA_OF_ASC_NODE,ARG_OF_PERICENTER,MEAN_ANOMALY,EPHEMERIS_TYPE,CLASSIFICATION_TYPE,NORAD_CAT_ID,ELEMENT_SET_NO,REV_AT_EPOCH,BSTAR,MEAN_MOTION_DOT,MEAN_MOTION_DDOT
TEVEL2-9,2025-052AD,2026-05-18T10:13:21.444096,15.30913495,.00042382,97.3973,33.8279,235.7490,124.3350,0,U,63237,999,6547,.29029069E-3,.8597E-4,0
TEVEL2-7,2025-052AE,2026-05-18T04:47:50.634240,15.30638211,.00043941,97.3976,33.5307,237.4810,122.6007,0,U,63238,999,6543,.2945132E-3,.8649E-4,0
TEVEL2-8,2025-052AF,2026-05-18T06:33:23.621184,15.30621046,.00042963,97.3977,33.5817,238.0378,122.0445,0,U,63239,999,6544,.28895623E-3,.848E-4,0
HADES-ICM,2025-052BN,2026-05-18T11:26:57.794784,16.07070045,.00114354,97.3723,43.1467,187.6548,172.4561,0,U,63492,999,6611,.21526123E-2,.1623772E-1,.18256914E-2
FORESAIL-1 PRIME,2025-276DS,2026-05-18T03:30:49.274496,15.18400035,.00023006,97.4208,211.9724,170.4072,189.7206,0,U,66778,999,2584,.17800383E-3,.3594E-4,0
