TEVEL2-9                
1 63237U 25052AD  26138.42594264  .00008597  00000+0  29029-3 0  9994
2 63237  97.3973  33.8279 0004238 235.7490 124.3350 15.30913495 65470
TEVEL2-7                
1 63238U 25052AE  26138.19989160  .00008649  00000+0  29451-3 0  9999
2 63238  97.3976  33.5307 0004394 237.4810 122.6007 15.30638211 65437
TEVEL2-8                
1 63239U 25052AF  26138.27319006  .00008480  00000+0  28896-3 0  9990
2 63239  97.3977  33.5817 0004296 238.0378 122.0445 15.30621046 65441
HADES-ICM               
1 63492U 25052BN  26138.47705780  .01623772  18257-2  21526-2 0  9997
2 63492  97.3723  43.1467 0011435 187.6548 172.4561 16.07070045 66115
FORESAIL-1 PRIME        
1 66778U 25276DS  26138.14640363  .00003594  00000+0  17800-3 0  9992
2 66778  97.4208 211.9724 0002301 170.4072 189.7206 15.18400035 25848
